NORAD_CAT_ID,OBJECT_NAME,OBJECT_TYPE,EPOCH,MEAN_MOTION,ECCENTRICITY,INCLINATION,RA_OF_ASC_NODE,ARG_OF_PERICENTER,MEAN_ANOMALY,BSTAR,MEAN_MOTION_DOT,MEAN_MOTION_DDOT,TLE_LINE0,TLE_LINE1,TLE_LINE2,SEMIMAJOR_AXIS,PERIOD,APOGEE,PERIGEE,DECAYED
53037.0,STARLINK-4153,PAYLOAD,2023-08-10 08:17:09,15.08845636,8.94e-05,53.2187,344.4685,89.6898,270.4197,-1.1308e-05,-4.68e-06,0.0,0 STARLINK-4153,1 53037U 22076BD  23222.34525025 -.00000468  00000-0 -11308-4 0  9999,2 53037  53.2187 344.4685 0000894  89.6898 270.4197 15.08845636 61327,6917.863,95.437,540.347,539.11,0.0
53037.0,STARLINK-4153,PAYLOAD,2023-08-10 17:49:27,15.08856662,9e-05,53.218,342.6845,72.8005,287.3086,0.00016494,2.339e-05,0.0,0 STARLINK-4153,1 53037U 22076BD  23222.74268324  .00002339  00000-0  16494-3 0  9996,2 53037  53.2180 342.6845 0000900  72.8005 287.3086 15.08856662 61381,6917.829,95.437,540.317,539.072,0.0
53037.0,STARLINK-4153,PAYLOAD,2023-08-11 08:07:56,15.0883853,6.97e-05,53.2192,340.0101,50.4879,309.6175,0.00011199,1.495e-05,0.0,0 STARLINK-4153,1 53037U 22076BD  23223.33885153  .00001495  00000-0  11199-3 0  9996,2 53037  53.2192 340.0101 0000697  50.4879 309.6175 15.08838530 61476,6917.885,95.438,540.232,539.268,0.0
53037.0,STARLINK-4153,PAYLOAD,2023-08-11 17:40:14,15.08854025,8.96e-05,53.218,338.2243,65.73,294.3785,0.00032495,4.89e-05,0.0,0 STARLINK-4153,1 53037U 22076BD  23223.73628464  .00004890  00000-0  32495-3 0  9994,2 53037  53.2180 338.2243 0000896  65.7300 294.3785 15.08854025 61539,6917.838,95.437,540.322,539.083,0.0
53037.0,STARLINK-4153,PAYLOAD,2023-08-12 11:09:29,15.08840536,9.16e-05,53.2178,334.9531,84.9124,275.1973,4.7134e-05,4.63e-06,0.0,0 STARLINK-4153,1 53037U 22076BD  23224.46492939  .00000463  00000-0  47134-4 0  9990,2 53037  53.2178 334.9531 0000916  84.9124 275.1973 15.08840536 61649,6917.879,95.438,540.377,539.11,0.0
53037.0,STARLINK-4153,PAYLOAD,2023-08-13 12:35:39,15.08855329,7.92e-05,53.2185,330.1964,55.245,304.8617,0.00070181,0.00010904,0.0,0 STARLINK-4153,1 53037U 22076BD  23225.52476838  .00010904  00000-0  70181-3 0  9996,2 53037  53.2185 330.1964 0000792  55.2450 304.8617 15.08855329 61809,6917.834,95.437,540.246,539.151,0.0
53037.0,STARLINK-4153,PAYLOAD,2023-08-13 23:43:22,15.0883654,8.47e-05,53.218,328.1137,79.8553,280.2534,0.00013727,1.897e-05,0.0,0 STARLINK-4153,1 53037U 22076BD  23225.98845301  .00001897  00000-0  13727-3 0  9995,2 53037  53.2180 328.1137 0000847  79.8553 280.2534 15.08836540 61876,6917.891,95.438,540.342,539.17,0.0
53037.0,STARLINK-4153,PAYLOAD,2023-08-15 10:41:51,15.0884799,7.19e-05,53.2176,321.5733,87.8089,272.2985,0.00031536,4.736e-05,0.0,0 STARLINK-4153,1 53037U 22076BD  23227.44573193  .00004736  00000-0  31536-3 0  9998,2 53037  53.2176 321.5733 0000719  87.8089 272.2985 15.08847990 62098,6917.856,95.437,540.218,539.224,0.0
53037.0,STARLINK-4153,PAYLOAD,2023-08-16 10:32:38,15.08842726,0.0001106,53.218,317.1136,79.4379,280.6738,0.00014973,2.096e-05,0.0,0 STARLINK-4153,1 53037U 22076BD  23228.43933435  .00002096  00000-0  14973-3 0  9990,2 53037  53.2180 317.1136 0001106  79.4379 280.6738 15.08842726 62249,6917.872,95.437,540.502,538.972,0.0
53037.0,STARLINK-4153,PAYLOAD,2023-08-16 18:29:33,15.08854855,8.63e-05,53.2172,315.6266,77.8941,282.2148,0.00034831,5.262e-05,0.0,0 STARLINK-4153,1 53037U 22076BD  23228.77052784  .00005262  00000-0  34831-3 0  9999,2 53037  53.2172 315.6266 0000863  77.8941 282.2148 15.08854855 62297,6917.835,95.437,540.297,539.103,0.0
53037.0,STARLINK-4153,PAYLOAD,2023-08-16 23:15:43,15.08834893,9.15e-05,53.2174,314.7341,87.5144,272.5953,-2.2373e-05,-6.44e-06,0.0,0 STARLINK-4153,1 53037U 22076BD  23228.96925601 -.00000644  00000-0 -22373-4 0  9997,2 53037  53.2174 314.7341 0000915  87.5144 272.5953 15.08834893 62324,6917.896,95.438,540.394,539.128,0.0
53037.0,STARLINK-4153,PAYLOAD,2023-08-17 10:23:25,15.08845679,7.7e-05,53.2187,312.6549,73.0891,287.0186,0.00014536,2.027e-05,0.0,0 STARLINK-4153,1 53037U 22076BD  23229.43293181  .00002027  00000-0  14536-3 0  9997,2 53037  53.2187 312.6549 0000770  73.0891 287.0186 15.08845679 62393,6917.863,95.437,540.261,539.195,0.0
53037.0,STARLINK-4153,PAYLOAD,2023-08-18 10:14:12,15.08834533,0.0001098,53.2183,308.1963,68.608,291.5029,7.1188e-06,-1.74e-06,0.0,0 STARLINK-4153,1 53037U 22076BD  23230.42653781 -.00000174  00000-0  71188-5 0  9994,2 53037  53.2183 308.1963 0001098  68.6080 291.5029 15.08834533 62543,6917.897,95.438,540.522,539.003,0.0
53037.0,STARLINK-4153,PAYLOAD,2023-08-19 11:40:22,15.08846705,0.0001106,53.2184,303.4367,94.0072,266.1046,0.00016096,2.275e-05,0.0,0 STARLINK-4153,1 53037U 22076BD  23231.48637210  .00002275  00000-0  16096-3 0  9998,2 53037  53.2184 303.4367 0001106  94.0072 266.1046 15.08846705 62703,6917.86,95.437,540.49,538.96,0.0
53037.0,STARLINK-4153,PAYLOAD,2023-08-20 03:34:14,15.0883598,0.0001084,53.2189,300.4651,93.6374,266.4742,0.00017028,2.423e-05,0.0,0 STARLINK-4153,1 53037U 22076BD  23232.14877716  .00002423  00000-0  17028-3 0  9990,2 53037  53.2189 300.4651 0001084  93.6374 266.4742 15.08835980 62806,6917.893,95.438,540.508,539.008,0.0
53037.0,STARLINK-4153,PAYLOAD,2023-08-21 09:46:34,15.08841596,0.0001286,53.2189,294.8116,111.4793,248.6337,2.8106e-05,1.59e-06,0.0,0 STARLINK-4153,1 53037U 22076BD  23233.40733874  .00000159  00000-0  28106-4 0  9990,2 53037  53.2189 294.8116 0001286 111.4793 248.6337 15.08841596 62998,6917.876,95.437,540.63,538.851,0.0
53037.0,STARLINK-4153,PAYLOAD,2023-08-22 04:51:12,15.0883616,0.0001131,53.2185,291.2433,105.4318,254.6799,9.8282e-05,1.277e-05,0.0,0 STARLINK-4153,1 53037U 22076BD  23234.20222293  .00001277  00000-0  98282-4 0  9991,2 53037  53.2185 291.2433 0001131 105.4318 254.6799 15.08836160 63117,6917.892,95.438,540.54,538.975,0.0
53037.0,STARLINK-4153,PAYLOAD,2023-08-23 11:03:31,15.08843189,0.0001035,53.2175,285.5934,95.9055,264.2055,0.00013422,1.849e-05,0.0,0 STARLINK-4153,1 53037U 22076BD  23235.46077908  .00001849  00000-0  13422-3 0  9998,2 53037  53.2175 285.5934 0001035  95.9055 264.2055 15.08843189 63304,6917.871,95.437,540.452,539.02,0.0
53037.0,STARLINK-4153,PAYLOAD,2023-08-24 10:54:18,15.08835306,9.84e-05,53.2165,281.1334,64.0886,296.0207,0.00010542,1.39e-05,0.0,0 STARLINK-4153,1 53037U 22076BD  23236.45438579  .00001390  00000-0  10542-3 0  9994,2 53037  53.2165 281.1334 0000984  64.0886 296.0207 15.08835306 62998,6917.895,95.438,540.44,539.079,0.0
53037.0,STARLINK-4153,PAYLOAD,2023-08-25 07:34:19,15.08842634,0.0001277,53.2166,277.2676,70.6903,289.4228,4.4098e-05,4.14e-06,0.0,0 STARLINK-4153,1 53037U 22076BD  23237.31550252  .00000414  00000-0  44098-4 0  9993,2 53037  53.2166 277.2676 0001277  70.6903 289.4228 15.08842634 63580,6917.872,95.437,540.621,538.854,0.0
53037.0,STARLINK-4153,PAYLOAD,2023-08-26 09:00:29,15.08840264,0.0001136,53.2169,272.509,78.2934,281.8185,7.0422e-05,8.33e-06,0.0,0 STARLINK-4153,1 53037U 22076BD  23238.37534334  .00000833  00000-0  70422-4 0  9998,2 53037  53.2169 272.5090 0001136  78.2934 281.8185 15.08840264 63746,6917.88,95.438,540.53,538.959,0.0
53037.0,STARLINK-4153,PAYLOAD,2023-08-27 08:51:16,15.08841529,0.0001249,53.2174,268.0484,93.3023,266.8112,6.5691e-05,7.58e-06,0.0,0 STARLINK-4153,1 53037U 22076BD  23239.36894258  .00000758  00000-0  65691-4 0  9990,2 53037  53.2174 268.0484 0001249  93.3023 266.8112 15.08841529 63435,6917.876,95.437,540.605,538.877,0.0
53037.0,STARLINK-4153,PAYLOAD,2023-08-28 02:20:31,15.08836011,0.0001276,53.2172,264.7767,97.4562,262.6576,3.7966e-05,3.16e-06,0.0,0 STARLINK-4153,1 53037U 22076BD  23240.09758710  .00000316  00000-0  37966-4 0  9998,2 53037  53.2172 264.7767 0001276  97.4562 262.6576 15.08836011 64005,6917.893,95.438,540.64,538.875,0.0
53037.0,STARLINK-4153,PAYLOAD,2023-08-28 18:14:23,15.08836533,0.0001265,53.2172,261.8034,89.8929,270.2208,3.2268e-05,2.26e-06,0.0,0 STARLINK-4153,1 53037U 22076BD  23240.75998862  .00000226  00000-0  32268-4 0  9995,2 53037  53.2172 261.8034 0001265  89.8929 270.2208 15.08836533 63645,6917.891,95.438,540.631,538.881,0.0
53037.0,STARLINK-4153,PAYLOAD,2023-08-29 08:32:50,15.08840746,0.0001258,53.2168,259.1269,88.8931,271.2205,5.6794e-05,6.16e-06,0.0,0 STARLINK-4153,1 53037U 22076BD  23241.35614578  .00000616  00000-0  56794-4 0  9994,2 53037  53.2168 259.1269 0001258  88.8931 271.2205 15.08840746 64194,6917.878,95.438,540.613,538.873,0.0
53037.0,STARLINK-4153,PAYLOAD,2023-08-29 11:43:37,15.08841555,0.0001262,53.2168,258.5321,88.5804,271.5332,6.2067e-05,7e-06,0.0,0 STARLINK-4153,1 53037U 22076BD  23241.48862524  .00000700  00000-0  62067-4 0  9998,2 53037  53.2168 258.5321 0001262  88.5804 271.5332 15.08841555 63751,6917.876,95.437,540.614,538.868,0.0
53037.0,STARLINK-4153,PAYLOAD,2023-08-30 02:02:06,15.08833729,0.0001253,53.2167,255.8557,86.5375,273.5761,3.9414e-05,3.39e-06,0.0,0 STARLINK-4153,1 53037U 22076BD  23242.08479235  .00000339  00000-0  39414-4 0  9996,2 53037  53.2167 255.8557 0001253  86.5375 273.5761 15.08833729 64306,6917.9,95.438,540.631,538.898,0.0
53037.0,STARLINK-4153,PAYLOAD,2023-08-30 08:23:38,15.08834485,0.0001299,53.217,254.6665,85.9785,274.1356,4.293e-05,3.95e-06,0.0,0 STARLINK-4153,1 53037U 22076BD  23242.34975276  .00000395  00000-0  42930-4 0  9990,2 53037  53.2170 254.6665 0001299  85.9785 274.1356 15.08834485 63884,6917.897,95.438,540.661,538.864,0.0
53037.0,STARLINK-4153,PAYLOAD,2023-08-31 09:49:48,15.08843115,0.0001358,53.2172,249.9088,86.1982,273.9166,5.9348e-05,6.57e-06,0.0,0 STARLINK-4153,1 53037U 22076BD  23243.40958837  .00000657  00000-0  59348-4 0  9994,2 53037  53.2172 249.9088 0001358  86.1982 273.9166 15.08843115 64506,6917.871,95.437,540.675,538.796,0.0
53037.0,STARLINK-4153,PAYLOAD,2023-09-01 06:29:49,15.0884062,0.0001367,53.217,246.0429,87.1761,272.9387,9.8468e-05,1.28e-05,0.0,0 STARLINK-4153,1 53037U 22076BD  23244.27070904  .00001280  00000-0  98468-4 0  9999,2 53037  53.2170 246.0429 0001367  87.1761 272.9387 15.08840620 64172,6917.878,95.438,540.689,538.798,0.0
